STARLINK-30213          
1 57504U 23113K   25261.31396261  .00001118  00000+0  97825-4 0  9993
2 57504  43.0026 234.5421 0001070 281.2055  78.8666 15.02536814117724
STARLINK-30227          
1 57505U 23113L   25261.28758233  .00000285  00000+0  36140-4 0  9998
2 57505  43.0029 221.3435 0001154 267.8674  92.2036 15.02535567117878
STARLINK-30212          
1 57506U 23113M   25261.37711076  .00000517  00000+0  53327-4 0  9997
2 57506  43.0029 234.1624 0001148 281.1068  78.9646 15.02536454117571
STARLINK-30219          
1 57507U 23113N   25261.37378306  .00000586  00000+0  58439-4 0  9998
2 57507  43.0028 234.1507 0000982 270.2407  89.8322 15.02535720117737
STARLINK-30074          
1 57508U 23113P   25261.32052011  .00001293  00000+0  11079-3 0  9990
2 57508  43.0024 233.7430 0001091 284.7347  75.3374 15.02536543117527
STARLINK-30082          
1 57509U 23113Q   25261.42694130  .00000394  00000+0  44198-4 0  9996
2 57509  43.0022 233.6889 0000943 290.7328  69.3413 15.02538121117749
STARLINK-30153          
1 57510U 23113R   25261.29065744  .00000197  00000+0  29637-4 0  9998
2 57510  43.0040 234.3980 0001206 272.2449  87.8255 15.02536770117616
STARLINK-30147          
1 57511U 23113S   25261.43359492  .00001045  00000+0  92487-4 0  9997
2 57511  43.0043 233.7392 0001855 276.9663  83.0968 15.02516429117741
STARLINK-30157          
1 57512U 23113T   25260.24743939  .00002722  00000+0  21649-3 0  9993
2 57512  43.0024 213.7675 0001076 260.2048  99.8673 15.02537045117870
STARLINK-30168          
1 57513U 23113U   25261.30398576  .00001181  00000+0  10248-3 0  9996
2 57513  43.0014 234.4553 0001005 282.5218  77.5512 15.02538971117563
STARLINK-30231          
1 57514U 23113V   25261.42028058 -.00001538  00000+0 -98727-4 0  9992
2 57514  43.0041 233.6260 0001511 284.9457  75.1218 15.02550166117740
STARLINK-30081          
1 57515U 23113W   25261.40697045 -.00000107  00000+0  71509-5 0  9999
2 57515  42.9996 233.5531 0000541 313.9598  46.1199 15.02532328117745
STARLINK-30149          
1 57516U 23113X   25261.26401819  .00000719  00000+0  68281-4 0  9996
2 57516  43.0035 234.1915 0001213 269.9027  90.1676 15.02535675117623
STARLINK-30259          
1 57521U 23115A   25261.33085778  .00000842  00000+0  77414-4 0  9999
2 57521  43.0022 221.5826 0000905 298.5051  61.5700 15.02534420117603
STARLINK-30256          
1 57522U 23115B   25261.26105215  .00000958  00000+0  86004-4 0  9994
2 57522  43.0022 221.9156 0001293 258.1883 101.8814 15.02531018116377
STARLINK-30261          
1 57523U 23115C   25261.32418910  .00001669  00000+0  13856-3 0  9995
2 57523  43.0025 221.5314 0001852 271.3067  88.7563 15.02549281116381
STARLINK-30260          
1 57524U 23115D   25261.25439538  .00000145  00000+0  25819-4 0  9998
2 57524  43.0036 221.8855 0001341 269.6436  90.4252 15.02531312116370
STARLINK-30253          
1 57525U 23115E   25261.37735332 -.00000104  00000+0  73308-5 0  9996
2 57525  43.0027 221.0729 0000807 273.0599  87.0151 15.02540396116392
STARLINK-30257          
1 57526U 23115F   25260.25056819  .00002133  00000+0  17286-3 0  9993
2 57526  43.0028 227.2620 0001195 278.8214  81.2493 15.02549511116225
STARLINK-30250          
1 57527U 23115G   25261.30756406 -.00000482  00000+0 -20594-4 0  9994
2 57527  43.0034 221.4050 0001857 263.2039  96.8592 15.02528308117284
STARLINK-30269          
1 57528U 23115H   25261.29423506  .00000272  00000+0  35220-4 0  9992
2 57528  43.0031 221.3334 0000739 266.4403  93.6355 15.02532876116381
STARLINK-30266          
1 57529U 23115J   25261.35071932  .00000255  00000+0  33936-4 0  9995
2 57529  43.0037 220.8781 0001280 274.9271  85.1425 15.02539742116391
STARLINK-30270          
1 57530U 23115K   25260.29374039 -.00000177  00000+0  19441-5 0  9993
2 57530  43.0001 226.7183 0001071 269.0961  90.9759 15.02531486116238
STARLINK-30268          
1 57531U 23115L   25260.30705463 -.00000286  00000+0 -60916-5 0  9990
2 57531  43.0039 226.8188 0001061 266.4629  93.6092 15.02533557116238
STARLINK-30251          
1 57532U 23115M   25261.36515491  .00000172  00000+0  27787-4 0  9998
2 57532  43.0021 220.9807 0000823 264.7075  95.3674 15.02529736116390
STARLINK-30254          
1 57533U 23115N   25261.28926706  .00002350  00000+0  94854-4 0  9994
2 57533  42.9973 356.7807 0000330 221.3620 138.7207 15.27582441118992
STARLINK-30264          
1 57534U 23115P   25260.98386630  .00001915  00000+0  79111-4 0  9992
2 57534  43.0020 104.2361 0001516 270.7332  89.3346 15.27579560118942
STARLINK-30166          
1 57602U 23119A   25261.45880271 -.00000225  00000+0 -15764-5 0  9995
2 57602  43.0039 297.8342 0001537 276.0034  84.0633 15.02543966117110
STARLINK-30223          
1 57603U 23119B   25261.43882382  .00000635  00000+0  62111-4 0  9999
2 57603  43.0039 297.6734 0000988 253.9793 106.0941 15.02532246117160
STARLINK-30218          
1 57604U 23119C   25261.44548544  .00000595  00000+0  59117-4 0  9997
2 57604  43.0019 297.7311 0001225 261.8036  98.2667 15.02531167117173
STARLINK-30138          
1 57605U 23119D   25261.10976397 -.00009188  00000+0 -66546-3 0  9994
2 57605  43.0053 299.5163 0001884 278.5372  81.5256 15.02561289117128
STARLINK-30255          
1 57606U 23119E   25261.54957826 -.00003355  00000+0 -23330-3 0  9993
2 57606  43.0034 296.7903 0001178 270.0439  90.0268 15.02549984117199
STARLINK-30252          
1 57607U 23119F   25261.45244139  .00000439  00000+0  47542-4 0  9990
2 57607  43.0008 285.0467 0001077 278.2589  81.8131 15.02530379117321
STARLINK-30258          
1 57608U 23119G   25261.10088847  .00005396  00000+0  41433-3 0  9994
2 57608  43.0022 299.4453 0001645 269.8489  90.2165 15.02523821117121
STARLINK-30174          
1 57609U 23119H   25261.55845678 -.00003581  00000+0 -25003-3 0  9998
2 57609  43.0038 296.8592 0001397 278.2500  81.8184 15.02553196117198
STARLINK-30248          
1 57610U 23119J   25260.56462237 -.00003143  00000+0 -21778-3 0  9995
2 57610  43.0026 302.3043 0001363 266.7401  93.3285 15.02522281117041
STARLINK-30052          
1 57611U 23119K   25261.15626732  .00000590  00000+0  58795-4 0  9995
2 57611  43.0040 299.0010 0001635 279.1816  80.8842 15.02532335117113
STARLINK-30245          
1 57612U 23119L   25261.15293405  .00000643  00000+0  62635-4 0  9990
2 57612  43.0033 298.9760 0001579 273.6572  86.4090 15.02540425117139
STARLINK-30041          
1 57613U 23119M   25261.14960671  .00000290  00000+0  36549-4 0  9999
2 57613  43.0019 298.9497 0001273 276.5938  83.4759 15.02534258117136
STARLINK-30244          
1 57614U 23119N   25261.34570873  .00000265  00000+0  34698-4 0  9998
2 57614  43.0037 297.8441 0001508 274.8644  85.2026 15.02534996117169
STARLINK-30246          
1 57615U 23119P   25261.14294423  .00000668  00000+0  64548-4 0  9995
2 57615  43.0019 298.8855 0001514 270.1862  89.8807 15.02530804117136
STARLINK-30075          
1 57616U 23119Q   25261.33916553  .00000434  00000+0  47224-4 0  9995
2 57616  43.0042 298.6564 0001632 280.3161  79.7498 15.02535219117155
STARLINK-30148          
1 57617U 23119R   25261.46879820 -.00000956  00000+0 -55746-4 0  9994
2 57617  43.0039 297.9098 0001311 273.0986  86.9706 15.02528183117170
STARLINK-30249          
1 57618U 23119S   25261.46545953 -.00002990  00000+0 -20628-3 0  9992
2 57618  43.0027 297.8815 0001449 289.0678  71.0008 15.02553003117170
STARLINK-30141          
1 57620U 23119U   25261.45325357  .00003213  00000+0  25293-3 0  9998
2 57620  43.0033 297.7850 0001119 261.4213  98.6503 15.02521236117179
STARLINK-30150          
1 57621U 23119V   25261.45546964 -.00000507  00000+0 -22487-4 0  9996
2 57621  43.0034 297.8080 0001699 260.6935  99.3715 15.02536067117173
STARLINK-30056          
1 57622U 23119W   25261.45214280 -.00001595  00000+0 -10303-3 0  9991
2 57622  43.0020 297.7550 0001233 262.2196  97.8506 15.02530549117171
STARLINK-30100          
1 57623U 23119X   25261.44881431 -.00000556  00000+0 -26066-4 0  9999
2 57623  43.0032 297.7576 0001376 273.8383  86.2302 15.02531647117173
STARLINK-30309          
1 57632U 23122A   25261.62142665  .00000297  00000+0  37082-4 0  9992
2 57632  43.0034 310.0066 0001613 276.5550  83.5109 15.02538626116299
STARLINK-30306          
1 57633U 23122B   25260.22206275 -.00000409  00000+0 -15169-4 0  9995
2 57633  43.0038 317.5666 0001506 270.6972  89.3698 15.02530450116087
STARLINK-30323          
1 57634U 23122C   25261.34681151 -.00002590  00000+0 -17671-3 0  9992
2 57634  43.0039 297.7997 0001564 274.6864  85.3799 15.02544445116417
STARLINK-30329          
1 57635U 23122D   25261.34885146 -.00001061  00000+0 -63506-4 0  9994
2 57635  43.0035 311.3991 0001089 270.8210  89.2508 15.02540680116256
STARLINK-30330          
1 57636U 23122E   25261.21256500  .00000098  00000+0  22319-4 0  9991
2 57636  43.0029 312.0980 0001142 268.9416  91.1296 15.02539045116239
STARLINK-30311          
1 57637U 23122F   25261.20590849  .00001753  00000+0  14487-3 0  9993
2 57637  43.0036 312.0478 0001506 265.0021  95.0650 15.02522315116233
STARLINK-30328          
1 57638U 23122G   25261.48641895  .00000321  00000+0  38802-4 0  9990
2 57638  43.0016 297.0669 0001102 275.6888  84.3829 15.02532901116440
STARLINK-30326          
1 57639U 23122H   25260.23859466 -.00000791  00000+0 -43493-4 0  9993
2 57639  43.0038 316.8262 0001255 273.0470  87.0228 15.02529364116095
STARLINK-30324          
1 57640U 23122J   25260.20208098 -.00000211  00000+0 -56442-6 0  9998
2 57640  43.0030 317.4172 0001343 279.4091  80.6600 15.02534101116080
STARLINK-30312          
1 57641U 23122K   25261.19592596 -.00000324  00000+0 -89005-5 0  9992
2 57641  43.0037 311.9743 0001626 271.1943  88.8713 15.02529412116231
STARLINK-30263          
1 57642U 23122L   25261.45517146 -.00001720  00000+0 -11227-3 0  9990
2 57642  43.0048 310.4840 0000861 260.5581  99.5164 15.02538828116270
